FLOCK 4G-11             
1 62629U 25009W   26068.45629261  .00012672  00000+0  47740-3 0  9990
2 62629  97.3964 150.6183 0001611 333.5407  26.5750 15.27220677 63680
STARLINK-34201          
1 64077U 25107P   26068.40500292  .00042706  00000+0  15512-2 0  9997
2 64077  42.9991 203.4388 0003357 288.4495  71.5991 15.27602563 44980
